41186,ORBCOMM FM115,2015,98.59,172.0,+,47.0,Active,1,LEO,USA,ORBCOMM,Commercial,Communications,Falcon,1 41186U 15081H   24101.26444884  .00000930  00000+0  22509-3 0  9995,2 41186  46.9988 295.4731 0001264 243.9536 116.1221 14.60532206444445,14.60532206,0.0001264,LEO
41187,ORBCOMM FM108,2015,98.87,172.0,+,47.01,Active,1,LEO,USA,ORBCOMM,Commercial,Communications,Falcon,1 41187U 15081J   24100.95174309  .00001182  00000+0  30092-3 0  9999,2 41187  47.0062 350.2965 0002126 124.5010 235.6075 14.56439642443605,14.56439642,0.0002126,LEO
41188,ORBCOMM FM117,2015,98.87,172.0,+,47.0,Active,1,LEO,USA,ORBCOMM,Commercial,Communications,Falcon,1 41188U 15081K   24101.39776029  .00001212  00000+0  30765-3 0  9997,2 41188  47.0023 347.0994 0002654 139.4466 220.6617 14.56446296443716,14.56446296,0.0002654,LEO
41189,ORBCOMM FM116,2015,98.87,172.0,+,47.0,Active,1,LEO,USA,ORBCOMM,Commercial,Communications,Falcon,1 41189U 15081L   24101.31836603  .00000708  00000+0  19527-3 0  9997,2 41189  47.0020  77.2877 0002644 252.3614 107.6982 14.56456009442514,14.56456009,0.0002644,LEO
